{
"type": "FeatureCollection",
"name": "affected-settlements",
"crs": { "type": "name", "properties": { "name": "urn:ogc:def:crs:OGC:1.3:CRS84" } },
"xy_coordinate_resolution": 1e-15,
"features": [
{ "type": "Feature", "properties": { "name": "Rasuwagadhi", "impact": "Border customs post destroyed; 300+ vehicles swept away" }, "geometry": { "type": "Point", "coordinates": [ 85.3697, 28.1706 ] } },
{ "type": "Feature", "properties": { "name": "Syafru Besi", "impact": "Trishuli/Bhote Koshi confluence area" }, "geometry": { "type": "Point", "coordinates": [ 85.3389, 28.1667 ] } },
{ "type": "Feature", "properties": { "name": "Trishuli Bazar", "impact": "Severe inundation, ~80m above river level" }, "geometry": { "type": "Point", "coordinates": [ 85.0833, 27.9833 ] } },
{ "type": "Feature", "properties": { "name": "Bidur (Devighat)", "impact": "Trishuli-Tadi confluence, major damage" }, "geometry": { "type": "Point", "coordinates": [ 85.0844, 27.8894 ] } },
{ "type": "Feature", "properties": { "name": "Gyirong Port (China)", "impact": "Border port destroyed, Tibet side" }, "geometry": { "type": "Point", "coordinates": [ 85.3167, 28.2333 ] } }
]
}
